{
  "norad_id": 48217,
  "name": "ONEWEB-0189",
  "history": [
    {
      "epoch": "2026-03-28T13:18:19.950048",
      "apogee_km": 1207.2441399666013,
      "perigee_km": 1204.3179610259976,
      "latitude_deg": -73.65010706579362,
      "longitude_deg": 134.9221667200327,
      "semi_major_axis_km": 7583.9180504963,
      "eccentricity": 0.00019292,
      "inclination_deg": 87.8957,
      "raan_deg": 305.7902,
      "arg_perigee_deg": 77.2533,
      "mean_anomaly_deg": 282.8813,
      "mean_motion_rev_day": 13.14505219
    },
    {
      "epoch": "2026-03-29T03:55:12.488736",
      "apogee_km": 1207.2395033366174,
      "perigee_km": 1204.3227284292489,
      "latitude_deg": 83.23019801256508,
      "longitude_deg": -166.61945696012117,
      "semi_major_axis_km": 7583.918115882933,
      "eccentricity": 0.0001923,
      "inclination_deg": 87.8955,
      "raan_deg": 305.669,
      "arg_perigee_deg": 77.3417,
      "mean_anomaly_deg": 282.7927,
      "mean_motion_rev_day": 13.14505202
    }
  ]
}